start=new Date('2023-01-10T00:00:00.000Z').valueOf();
sats=[{"OBJECT_ID":"2022-062Y","BSTAR":"0.00059896000000","GP_ID":"222544160","TLE_LINE2":"2 52852  53.2160 170.0432 0002613  63.2573 296.8686 15.08861061 31528","PERIAPSIS":"537.873","RCS_SIZE":"LARGE","COUNTRY_CODE":"US","RA_OF_ASC_NODE":"170.0432","OBJECT_NAME":"STARLINK-4184","ECCENTRICITY":"0.00026130","TIME_SYSTEM":"UTC","FILE":"3737263","CENTER_NAME":"EARTH","MEAN_MOTION_DDOT":"0.0000000000000","MEAN_ANOMALY":"296.8686","APOAPSIS":"541.489","REF_FRAME":"TEME","TLE_LINE1":"1 52852U 22062Y   23009.48370701  .00009263  00000-0  59896-3 0  9998","PERIOD":"95.436","CLASSIFICATION_TYPE":"U","NORAD_CAT_ID":"52852","SITE":"AFETR","SEMIMAJOR_AXIS":"6917.816","EPOCH":"2023-01-09T11:36:32.285664","EPHEMERIS_TYPE":"0","DECAY_DATE":null,"LAUNCH_DATE":"2022-06-17","REV_AT_EPOCH":"3152","ELEMENT_SET_NO":"999","MEAN_MOTION":"15.08861061","MEAN_MOTION_DOT":"0.00009263","ARG_OF_PERICENTER":"63.2573","MEAN_ELEMENT_THEORY":"SGP4","OBJECT_TYPE":"PAYLOAD","INCLINATION":"53.2160"},{"MEAN_ANOMALY":"335.1893","REF_FRAME":"TEME","APOAPSIS":"541.983","CENTER_NAME":"EARTH","MEAN_MOTION_DDOT":"0.0000000000000","FILE":"3737374","ECCENTRICITY":"0.00031760","TIME_SYSTEM":"UTC","OBJECT_NAME":"STARLINK-4189","COUNTRY_CODE":"US","RA_OF_ASC_NODE":"168.9228","TLE_LINE2":"2 52853  53.2185 168.9228 0003176  24.9252 335.1893 15.08826835 32054","RCS_SIZE":"LARGE","PERIAPSIS":"537.588","GP_ID":"222576418","BSTAR":"-0.00001602000000","OBJECT_ID":"2022-062Z","INCLINATION":"53.2185","OBJECT_TYPE":"PAYLOAD","ARG_OF_PERICENTER":"24.9252","MEAN_ELEMENT_THEORY":"SGP4","MEAN_MOTION":"15.08826835","MEAN_MOTION_DOT":"-0.00000544","ELEMENT_SET_NO":"999","LAUNCH_DATE":"2022-06-17","DECAY_DATE":null,"REV_AT_EPOCH":"3205","SITE":"AFETR","SEMIMAJOR_AXIS":"6917.921","EPOCH":"2023-01-09T17:36:51.285888","EPHEMERIS_TYPE":"0","NORAD_CAT_ID":"52853","CLASSIFICATION_TYPE":"U","PERIOD":"95.438","TLE_LINE1":"1 52853U 22062Z   23009.73392692 -.00000544  00000-0 -16020-4 0  9998"},{"TLE_LINE2":"2 52854  53.2179 168.9067 0003349  45.0274 315.0989 15.08842652 32057","PERIAPSIS":"537.420","RCS_SIZE":"LARGE","OBJECT_NAME":"STARLINK-4204","COUNTRY_CODE":"US","RA_OF_ASC_NODE":"168.9067","BSTAR":"0.00015096000000","GP_ID":"222576664","OBJECT_ID":"2022-062AA","MEAN_ANOMALY":"315.0989","REF_FRAME":"TEME","APOAPSIS":"542.054","FILE":"3737374","CENTER_NAME":"EARTH","MEAN_MOTION_DDOT":"0.0000000000000","TIME_SYSTEM":"UTC","ECCENTRICITY":"0.00033490","SITE":"AFETR","SEMIMAJOR_AXIS":"6917.872","EPHEMERIS_TYPE":"0","EPOCH":"2023-01-09T17:42:08.402400","LAUNCH_DATE":"2022-06-17","DECAY_DATE":null,"REV_AT_EPOCH":"3205","NORAD_CAT_ID":"52854","PERIOD":"95.437","CLASSIFICATION_TYPE":"U","TLE_LINE1":"1 52854U 22062AA  23009.73759725  .00002115  00000-0  15096-3 0  9998","INCLINATION":"53.2179","OBJECT_TYPE":"PAYLOAD","ARG_OF_PERICENTER":"45.0274","MEAN_ELEMENT_THEORY":"SGP4","ELEMENT_SET_NO":"999","MEAN_MOTION":"15.08842652","MEAN_MOTION_DOT":"0.00002115"},{"INCLINATION":"53.2160","OBJECT_TYPE":"PAYLOAD","MEAN_ELEMENT_THEORY":"SGP4","ARG_OF_PERICENTER":"40.4172","MEAN_MOTION_DOT":"-0.00000791","MEAN_MOTION":"15.08841387","ELEMENT_SET_NO":"999","REV_AT_EPOCH":"3202","DECAY_DATE":null,"LAUNCH_DATE":"2022-06-17","SEMIMAJOR_AXIS":"6917.876","EPOCH":"2023-01-09T12:40:05.023488","EPHEMERIS_TYPE":"0","SITE":"AFETR","NORAD_CAT_ID":"52855","CLASSIFICATION_TYPE":"U","PERIOD":"95.437","TLE_LINE1":"1 52855U 22062AB  23009.52783592 -.00000791  00000-0 -31585-4 0  9997","APOAPSIS":"541.639","REF_FRAME":"TEME","MEAN_ANOMALY":"319.7024","MEAN_MOTION_DDOT":"0.0000000000000","CENTER_NAME":"EARTH","FILE":"3737374","ECCENTRICITY":"0.00027440","TIME_SYSTEM":"UTC","RA_OF_ASC_NODE":"169.8402","COUNTRY_CODE":"US","OBJECT_NAME":"STARLINK-4209","TLE_LINE2":"2 52855  53.2160 169.8402 0002744  40.4172 319.7024 15.08841387 32027","RCS_SIZE":"LARGE","PERIAPSIS":"537.843","GP_ID":"222576659","BSTAR":"-0.00003158500000","OBJECT_ID":"2022-062AB"},{"BSTAR":"0.00014859000000","GP_ID":"222576417","OBJECT_ID":"2022-062AC","TLE_LINE2":"2 52856  53.2161 168.9305 0002615  44.3631 315.7570 15.08839721 32055","RCS_SIZE":"LARGE","PERIAPSIS":"537.937","COUNTRY_CODE":"US","RA_OF_ASC_NODE":"168.9305","OBJECT_NAME":"STARLINK-4201","FILE":"3737374","MEAN_MOTION_DDOT":"0.0000000000000","CENTER_NAME":"EARTH","ECCENTRICITY":"0.00026150","TIME_SYSTEM":"UTC","APOAPSIS":"541.555","REF_FRAME":"TEME","MEAN_ANOMALY":"315.7570","PERIOD":"95.438","CLASSIFICATION_TYPE":"U","TLE_LINE1":"1 52856U 22062AC  23009.73024563  .00002077  00000-0  14859-3 0  9998","EPHEMERIS_TYPE":"0","SEMIMAJOR_AXIS":"6917.881","EPOCH":"2023-01-09T17:31:33.222432","SITE":"AFETR","DECAY_DATE":null,"REV_AT_EPOCH":"3205","LAUNCH_DATE":"2022-06-17","NORAD_CAT_ID":"52856","MEAN_ELEMENT_THEORY":"SGP4","ARG_OF_PERICENTER":"44.3631","ELEMENT_SET_NO":"999","MEAN_MOTION_DOT":"0.00002077","MEAN_MOTION":"15.08839721","INCLINATION":"53.2161","OBJECT_TYPE":"PAYLOAD"},{"BSTAR":"0.00008661200000","GP_ID":"222544912","OBJECT_ID":"2022-062AD","TLE_LINE2":"2 52857  53.2181 170.1645 0002772  34.4575 325.6597 15.08844243 31526","PERIAPSIS":"537.815","RCS_SIZE":"LARGE","COUNTRY_CODE":"US","RA_OF_ASC_NODE":"170.1645","OBJECT_NAME":"STARLINK-4199","FILE":"3737263","CENTER_NAME":"EARTH","MEAN_MOTION_DDOT":"0.0000000000000","ECCENTRICITY":"0.00027720","TIME_SYSTEM":"UTC","MEAN_ANOMALY":"325.6597","APOAPSIS":"541.650","REF_FRAME":"TEME","PERIOD":"95.437","CLASSIFICATION_TYPE":"U","TLE_LINE1":"1 52857U 22062AD  23009.45423768  .00001090  00000-0  86612-4 0  9999","SITE":"AFETR","EPOCH":"2023-01-09T10:54:06.135552","SEMIMAJOR_AXIS":"6917.867","EPHEMERIS_TYPE":"0","REV_AT_EPOCH":"3152","DECAY_DATE":null,"LAUNCH_DATE":"2022-06-17","NORAD_CAT_ID":"52857","ARG_OF_PERICENTER":"34.4575","MEAN_ELEMENT_THEORY":"SGP4","ELEMENT_SET_NO":"999","MEAN_MOTION_DOT":"0.00001090","MEAN_MOTION":"15.08844243","INCLINATION":"53.2181","OBJECT_TYPE":"PAYLOAD"},{"ECCENTRICITY":"0.00015210","TIME_SYSTEM":"UTC","FILE":"3737374","MEAN_MOTION_DDOT":"0.0000000000000","CENTER_NAME":"EARTH","REF_FRAME":"TEME","APOAPSIS":"540.790","MEAN_ANOMALY":"303.3127","OBJECT_ID":"2022-062AE","BSTAR":"0.00007076500000","GP_ID":"222576662","TLE_LINE2":"2 52858  53.2163 168.9433 0001521  56.8011 303.3127 15.08842595 32050","RCS_SIZE":"LARGE","PERIAPSIS":"538.685","COUNTRY_CODE":"US","RA_OF_ASC_NODE":"168.9433","OBJECT_NAME":"STARLINK-4198","ELEMENT_SET_NO":"999","MEAN_MOTION_DOT":"0.00000838","MEAN_MOTION":"15.08842595","MEAN_ELEMENT_THEORY":"SGP4","ARG_OF_PERICENTER":"56.8011","OBJECT_TYPE":"PAYLOAD","INCLINATION":"53.2163","TLE_LINE1":"1 52858U 22062AE  23009.72751951  .00000838  00000-0  70765-4 0  9999","PERIOD":"95.437","CLASSIFICATION_TYPE":"U","NORAD_CAT_ID":"52858","SEMIMAJOR_AXIS":"6917.872","EPOCH":"2023-01-09T17:27:37.685664","EPHEMERIS_TYPE":"0","SITE":"AFETR","LAUNCH_DATE":"2022-06-17","DECAY_DATE":null,"REV_AT_EPOCH":"3205"},{"ELEMENT_SET_NO":"999","MEAN_MOTION":"15.08841021","MEAN_MOTION_DOT":"0.00000836","ARG_OF_PERICENTER":"56.3470","MEAN_ELEMENT_THEORY":"SGP4","OBJECT_TYPE":"PAYLOAD","INCLINATION":"53.2178","TLE_LINE1":"1 52859U 22062AF  23009.71553741  .00000836  00000-0  70628-4 0  9992","PERIOD":"95.437","CLASSIFICATION_TYPE":"U","NORAD_CAT_ID":"52859","SITE":"AFETR","SEMIMAJOR_AXIS":"6917.877","EPHEMERIS_TYPE":"0","EPOCH":"2023-01-09T17:10:22.432224","DECAY_DATE":null,"REV_AT_EPOCH":"3205","LAUNCH_DATE":"2022-06-17","ECCENTRICITY":"0.00027940","TIME_SYSTEM":"UTC","FILE":"3737637","CENTER_NAME":"EARTH","MEAN_MOTION_DDOT":"0.0000000000000","MEAN_ANOMALY":"303.7788","REF_FRAME":"TEME","APOAPSIS":"541.675","OBJECT_ID":"2022-062AF","BSTAR":"0.00007062800000","GP_ID":"222582103","TLE_LINE2":"2 52859  53.2178 168.9915 0002794  56.3470 303.7788 15.08841021 32059","PERIAPSIS":"537.809","RCS_SIZE":"LARGE","COUNTRY_CODE":"US","OBJECT_NAME":"STARLINK-4196","RA_OF_ASC_NODE":"168.9915"},{"TLE_LINE1":"1 52860U 22062AG  23009.72288123  .00002207  00000-0  15673-3 0  9996","CLASSIFICATION_TYPE":"U","PERIOD":"95.437","NORAD_CAT_ID":"52860","LAUNCH_DATE":"2022-06-17","DECAY_DATE":null,"REV_AT_EPOCH":"3205","SITE":"AFETR","SEMIMAJOR_AXIS":"6917.858","EPOCH":"2023-01-09T17:20:56.938272","EPHEMERIS_TYPE":"0","MEAN_MOTION":"15.08847213","MEAN_MOTION_DOT":"0.00002207","ELEMENT_SET_NO":"999","ARG_OF_PERICENTER":"47.3104","MEAN_ELEMENT_THEORY":"SGP4","OBJECT_TYPE":"PAYLOAD","INCLINATION":"53.2167","OBJECT_ID":"2022-062AG","GP_ID":"222576434","BSTAR":"0.00015673000000","RA_OF_ASC_NODE":"168.9672","COUNTRY_CODE":"US","OBJECT_NAME":"STARLINK-4191","TLE_LINE2":"2 52860  53.2167 168.9672 0003623  47.3104 312.8192 15.08847213 32054","PERIAPSIS":"537.217","RCS_SIZE":"LARGE","ECCENTRICITY":"0.00036230","TIME_SYSTEM":"UTC","CENTER_NAME":"EARTH","MEAN_MOTION_DDOT":"0.0000000000000","FILE":"3737378","MEAN_ANOMALY":"312.8192","APOAPSIS":"542.230","REF_FRAME":"TEME"},{"TLE_LINE1":"1 52861U 22062AH  23009.69713995  .00001682  00000-0  12380-3 0  9991","PERIOD":"95.437","CLASSIFICATION_TYPE":"U","NORAD_CAT_ID":"52861","SITE":"AFETR","SEMIMAJOR_AXIS":"6917.878","EPOCH":"2023-01-09T16:43:52.891680","EPHEMERIS_TYPE":"0","REV_AT_EPOCH":"3205","DECAY_DATE":null,"LAUNCH_DATE":"2022-06-17","ELEMENT_SET_NO":"999","MEAN_MOTION":"15.08840871","MEAN_MOTION_DOT":"0.00001682","ARG_OF_PERICENTER":"50.2474","MEAN_ELEMENT_THEORY":"SGP4","OBJECT_TYPE":"PAYLOAD","INCLINATION":"53.2178","OBJECT_ID":"2022-062AH","BSTAR":"0.00012380000000","GP_ID":"222576432","TLE_LINE2":"2 52861  53.2178 169.0900 0003042  50.2474 309.8786 15.08840871 32059","RCS_SIZE":"LARGE","PERIAPSIS":"537.638","COUNTRY_CODE":"US","OBJECT_NAME":"STARLINK-4112","RA_OF_ASC_NODE":"169.0900","ECCENTRICITY":"0.00030420","TIME_SYSTEM":"UTC","FILE":"3737378","CENTER_NAME":"EARTH","MEAN_MOTION_DDOT":"0.0000000000000","MEAN_ANOMALY":"309.8786","APOAPSIS":"541.847","REF_FRAME":"TEME"}];
